{
  "norad_id": 64060,
  "name": "TIANQI-18",
  "history": [
    {
      "epoch": "2026-03-28T22:04:27.422112Z",
      "apogee_km": 904.9872761324386,
      "perigee_km": 888.8065821692562,
      "latitude_deg": -3.6314562516359643e-06,
      "longitude_deg": -138.13045697544038,
      "height_km": 888.8391332719192,
      "semi_major_axis_km": 7275.033929150847,
      "eccentricity": 0.00111207,
      "inclination_deg": 44.9864,
      "raan_deg": 19.3171,
      "arg_perigee_deg": 5.3644,
      "mean_anomaly_deg": 354.7306,
      "mean_motion_rev_day": 13.99104738
    },
    {
      "epoch": "2026-03-29T04:55:45.868800Z",
      "apogee_km": 904.9724086056249,
      "perigee_km": 888.8189260710669,
      "latitude_deg": -7.947615413169694e-06,
      "longitude_deg": 117.49054765991423,
      "height_km": 888.872208447291,
      "semi_major_axis_km": 7275.032667338345,
      "eccentricity": 0.0011102,
      "inclination_deg": 44.9864,
      "raan_deg": 18.0465,
      "arg_perigee_deg": 6.7811,
      "mean_anomaly_deg": 353.317,
      "mean_motion_rev_day": 13.99105102
    }
  ]
}